ORBCOMM FM37            
1 33064U 08031E   25123.93484234  .00002452  00000+0  35140-3 0  9996
2 33064  48.4381 193.9889 0005445 192.4437 337.7289 14.79624898907497
ORBCOMM FM40            
1 33065U 08031F   25123.91373186  .00002860  00000+0  38488-3 0  9999
2 33065  48.4396 178.8581 0006653 204.1026 326.3644 14.81828173907597
VESSELSAT 1             
1 37840U 11058C   25123.91133610  .00000432  00000+0  91123-4 0  9992
2 37840  19.9635   1.7977 0013689  59.8543 300.3217 14.11345338700049
ORBCOMM FM109           
1 40086U 14040A   25123.71534666  .00001147  00000+0  28322-3 0  9990
2 40086  47.0032 226.3161 0001501 170.7453 189.3461 14.58109997574574
ORBCOMM FM107           
1 40087U 14040B   25123.67747210  .00001234  00000+0  30144-3 0  9999
2 40087  47.0049 227.4756 0000269  82.3678 277.7238 14.58173555574645
ORBCOMM FM106           
1 40088U 14040C   25123.83082451  .00001900  00000+0  34917-3 0  9999
2 40088  47.0606  52.3997 0017197 222.8388 137.1163 14.69346082576955
ORBCOMM FM111           
1 40089U 14040D   25123.78225252  .00004669  00000+0  54703-3 0  9992
2 40089  47.0012 268.7767 0030514 337.6418  22.3148 14.86075978583624
ORBCOMM FM104           
1 40090U 14040E   25123.82286400  .00001151  00000+0  29318-3 0  9998
2 40090  47.0050 259.8645 0016167 359.7549   0.3325 14.56586719574150
